UNKNOWN                 
1 81052U          25222.95389437  .00002782  00000+0  80445-3 0  9999
2 81052  65.7738 341.4516 0563882   7.6822 353.2438 13.80627604583219
UNKNOWN                 
1 81069U          25224.41905251  .00003126  00000+0  42261-2 0  9994
2 81069 100.3827 118.2733 0068731 349.7060  10.2666 13.59457407499307
UNKNOWN                 
1 81078U          25217.11191279  .00000163  00000+0  60875-2 0  9999
2 81078  65.1139 104.3131 0182267  34.9566 115.7195 11.22414650480077
UNKNOWN                 
1 81111U          25222.85721124  .00030398  00000+0  57826-2 0  9997
2 81111  62.8813 135.1726 3894251 352.3667   3.1286  7.50815045262613
UNKNOWN                 
1 81123U          25218.91932975  .00000773  00000+0  77615-3 0  9993
2 81123  99.9808 293.3926 0003019  80.7631 279.3861 13.81212189588634
UNKNOWN                 
1 81134U          25223.35651102  .00000158  00000+0  55391-3 0  9993
2 81134  90.2510   1.2096 0025315 358.1099   1.9920 12.92939216446666
UNKNOWN                 
1 81161U          25217.78888986  .00000668  00000+0  74236-3 0  9990
2 81161 100.4270  47.9597 0057809 249.7867 109.7057 13.75247516538406
UNKNOWN                 
1 81219U 81053    25224.39569024  .00000471  00000+0  42659-3 0  9991
2 81219  82.9240  98.0382 0020066 197.9030 162.1425 13.81630668590626
UNKNOWN                 
1 81228U          25221.19871184  .00004334  00000+0  13918-2 0  9999
2 81228  70.5212 197.9257 0065257 194.0921 165.8393 14.38764678608026
UNKNOWN                 
1 81254U 70025    25211.83197388  .00003452  00000+0  23099-2 0  9990
2 81254 100.3971 255.5215 0074096  67.7765 293.1234 14.00409914594006
UNKNOWN                 
1 81279U          25224.42750365  .00000867  00000+0  34643-3 0  9997
2 81279  98.1451 293.6074 0208612  23.6914 337.3702 14.19526066445246
UNKNOWN                 
1 81301U          25221.77303877  .00000141  00000+0  21235-3 0  9998
2 81301  66.7561 234.3253 0094694 310.8800 229.4162 13.76605560589153
UNKNOWN                 
1 81311U 90105    25224.11221672  .00000671  00000+0  14611-3 0  9995
2 81311  98.7509 275.4825 0132792 138.8138 250.6623 14.56268840621741
UNKNOWN                 
1 81317U 80089    25224.39765416  .00000209  00000+0  45768-3 0  9994
2 81317  67.1360  85.9759 0207003 121.7469  55.8332 13.37945953572267
UNKNOWN                 
1 81323U          25222.13468863  .00010318  00000+0  15076-2 0  9992
2 81323  65.7555  16.0518 0351101  19.4240 341.9853 14.41861006 95068
UNKNOWN                 
1 81329U          25222.60367962  .00002691  00000+0  10197-2 0  9992
2 81329  65.8210  53.8571 0828925  86.7809 282.7621 13.21463977561674
UNKNOWN                 
1 81341U          25224.63237584  .00003043  00000+0  74664-2 0  9998
2 81341  99.5067 183.3283 0393609  67.1970 297.0212 12.97038583507598
UNKNOWN                 
1 81343U          25224.37475457  .00004826  00000+0  36895-3 0  9999
2 81343  85.8669 264.6508 0008444   1.4824 358.6431 15.01685689435947
UNKNOWN                 
1 81359U          25220.74563468  .00000232  00000+0  28899-3 0  9995
2 81359  66.8009 353.4639 0107957  49.9557 311.0924 13.78570444588114
UNKNOWN                 
1 81366U          25224.09398033  .00002132  00000+0  77132-3 0  9994
2 81366  65.8845   2.1173 0715457 141.4694 223.9737 13.44743844 49462
UNKNOWN                 
1 81371U          25223.19511739  .00003128  00000+0  52335-3 0  9994
2 81371  98.8179 309.8454 0072286  29.8053 330.7237 14.68943861623690
UNKNOWN                 
1 81386U          25224.38345993  .00003927  00000+0  13414-2 0  9990
2 81386  71.0467 261.5485 0096015 280.4136  78.6187 14.34366342606688
UNKNOWN                 
1 81390U          25224.40817823  .00000138  00000+0  14123-2 0  9993
2 81390 103.1092 104.9636 0182176 359.3181   0.7605 12.35711861484989
UNKNOWN                 
1 81392U          25223.71530351  .00003049  00000+0  29287-2 0  9997
2 81392 100.3889 199.7209 0045679 356.2152 183.1598 13.80665098585195
UNKNOWN                 
1 81405U          25222.40582728  .00001423  00000+0  11058-2 0  9993
2 81405  99.4796 268.5725 0160965 195.4014 164.2212 13.88377841544540
UNKNOWN                 
1 81406U          25219.98895852  .00001352  00000+0  58604-3 0  9998
2 81406  65.8043  79.8077 0861662  15.9452 346.6971 13.11392482517058
UNKNOWN                 
1 81427U          25219.40476251  .00000807  00000+0  49482-3 0  9994
2 81427  98.7634 105.5894 0086294  37.2517 323.4596 14.06643235533868
UNKNOWN                 
1 81438U          25220.33996044  .00001846  00000+0  27698-2 0  9995
2 81438 100.3015  86.7977 0059421  24.3212 336.0707 13.53849378574839
UNKNOWN                 
1 81439U          25218.71623319  .00000245  00000+0  81744-3 0  9992
2 81439  67.1622  29.3830 0606476 281.6790  71.6808 12.62514321245736
UNKNOWN                 
1 81449U 85042    25222.62478367  .00033507  00000+0  39029-2 0  9993
2 81449  66.7990 348.2427 0038146 237.4885 122.2554 14.84577004615052
UNKNOWN                 
1 81478U          25224.54150567  .00004345  00000+0  16052-2 0  9997
2 81478  98.9494 133.4941 0149521 353.0685 184.1590 14.26942556605508
UNKNOWN                 
1 81488U 75052    25224.41195633  .00000386  00000+0  61117-3 0  9990
2 81488 100.0199  95.1626 0044382 304.8146 238.7692 13.56420214580049
UNKNOWN                 
1 81497U          25223.90902958  .00003767  00000+0  34850-2 0  9999
2 81497 100.3063 106.9961 0029178 334.9770  88.1609 13.82946596199314
UNKNOWN                 
1 81499U          25223.05466175  .00002514  00000+0  71080-3 0  9999
2 81499  74.0482  91.8754 0002240 212.0243 148.0779 14.46157079464536
UNKNOWN                 
1 81535U          25223.02728170  .00001664  00000+0  69839-3 0  9997
2 81535  98.2068 315.3747 0237533 146.3740 215.2767 14.12998642369920
UNKNOWN                 
1 81536U 73086    25223.88610883  .00000441  00000+0  29719-2 0  9991
2 81536 101.9652  83.5517 0015326 131.3285 248.4512 12.55681437536392
UNKNOWN                 
1 81537U 93016    25223.12050188  .00000050  00000+0  56332-4 0  9999
2 81537  71.0409   4.9733 0078346 337.5541  22.2155 14.06978965603077
UNKNOWN                 
1 81552U          25223.27519229  .00000735  00000+0  16636-2 0  9990
2 81552  99.0539 167.0162 0260196 315.0211  43.0092 13.17852964562982
UNKNOWN                 
1 81599U          25224.34410940  .00000559  00000+0  10916-2 0  9999
2 81599  67.2931 185.6888 0252482 174.2682 337.6175 13.31318997568780
UNKNOWN                 
1 81605U          25210.34863837  .00001038  00000+0  46337-2 0  9998
2 81605  56.4392 239.8131 0171562 304.0105  54.4626 12.81132704168723
UNKNOWN                 
1 81614U 76077    25223.44687385  .00004530  00000+0  26692-1 0  9993
2 81614 101.8222 223.2019 0422962  22.6428 339.2706 12.35659487522746
UNKNOWN                 
1 81615U 92021    25224.04717124  .00004372  00000+0  14919-2 0  9997
2 81615  65.8298 347.8951 0784728 193.5281 164.3598 13.33234944566507
UNKNOWN                 
1 81617U 73086    25223.47181545  .00000309  00000+0  20899-2 0  9997
2 81617 101.2608  43.3147 0037135 120.4223 240.0531 12.57419484537610
UNKNOWN                 
1 81624U          25221.09481786  .00008257  00000+0  13705-2 0  9995
2 81624  66.9777 153.4205 0071924 333.2128  26.5284 14.68900516621242
UNKNOWN                 
1 81640U          25223.71186657  .00000513  00000+0  52433-3 0  9992
2 81640  65.8271  23.3274 0979028 128.1102 241.2357 12.57096960494614
UNKNOWN                 
1 81652U 76077    25223.86378575  .00000363  00000+0  49153-3 0  9998
2 81652 102.1591  86.8462 0366518 274.7063  93.5051 13.44154322562145
UNKNOWN                 
1 81667U          25222.45962694  .00001552  00000+0  43325-3 0  9998
2 81667  74.0384 268.9228 0015985 240.8520 119.1039 14.47032984438665
UNKNOWN                 
1 81674U          25223.25076456  .00000640  00000+0  40959-3 0  9994
2 81674  66.8240 315.1139 0032911 301.1089  89.3285 14.09529525596316
UNKNOWN                 
1 81683U          25224.00111231  .00002694  00000+0  60575-3 0  9996
2 81683  81.2141  64.6695 0024806 314.1417  45.7739 14.56084500617992
UNKNOWN                 
1 81693U 73086    25216.93695207  .00000608  00000+0  46804-2 0  9995
2 81693 101.0811 292.7059 0366464 328.6622  29.3056 12.25627561951864
UNKNOWN                 
1 81745U          25223.47168149  .00002347  00000+0  76895-3 0  9992
2 81745  71.0014 297.1209 0004821  22.4774 337.6572 14.39453681612007
UNKNOWN                 
1 81749U          25218.63098525  .00000126  00000+0  54423-3 0  9994
2 81749  99.7022 266.7528 0371511 130.6633  20.1787 12.77564017545645
UNKNOWN                 
1 81775U          25222.25129512  .00005285  00000+0  17162-2 0  9996
2 81775  82.9255 327.2678 0017087 266.0815  93.8423 14.38659817607360
UNKNOWN                 
1 81792U          25224.40734208  .00000509  00000+0  21297-3 0  9997
2 81792  65.8250  10.5991 0895025 336.3477  19.8686 13.10260570 64005
UNKNOWN                 
1 81812U          25223.45152604  .00006716  00000+0  43831-1 0  9990
2 81812 103.7908 119.2195 0329982  72.1156 291.5593 12.36757490525317
UNKNOWN                 
1 81816U 77121    25224.49550422  .00000774  00000+0  61716-3 0  9999
2 81816  66.2363 240.7757 0182684 313.3597  45.2377 13.88969951592366
UNKNOWN                 
1 81819U          25223.24322077  .00000350  00000+0  26920-2 0  9996
2 81819 102.1752 318.7212 0032225 347.9409  12.0884 12.47420533532612
UNKNOWN                 
1 81824U          25224.26639952  .00003734  00000+0  13695-2 0  9992
2 81824  65.8448 311.1671 0028721  32.8484 327.4387 14.33697932607025
UNKNOWN                 
1 81833U          25224.60916047  .00000252  00000+0  88788-3 0  9991
2 81833  90.2432   0.2038 0025778 346.3887  13.6534 12.93663051436726
